{
  "type": "FeatureCollection",
  "features": [
    {
      "type": "Feature",
      "properties": {
        "norad_id": 30073,
        "name": "FENGYUN 1C DEB",
        "group": "fengyun-1c-debris",
        "lat": -79.73088620128593,
        "lon": 18.83097659446905,
        "alt_km": 802.1614132643999,
        "timestamp": "2025-12-05T20:43:02.328917+00:00",
        "meta_object_name": "FENGYUN 1C DEB",
        "meta_object_id": "1999-025QA",
        "meta_epoch": "2025-12-04T21:40:44.865984",
        "meta_mean_motion": 14.18584881,
        "meta_eccentricity": 0.0054274,
        "meta_inclination": 99.4103,
        "meta_ra_of_asc_node": 311.5567,
        "meta_arg_of_pericenter": 302.7222,
        "meta_mean_anomaly": 112.1077,
        "meta_ephemeris_type": 0,
        "meta_classification_type": "U",
        "meta_norad_cat_id": 30073,
        "meta_element_set_no": 999,
        "meta_rev_at_epoch": 96814,
        "meta_bstar": 0.0032997,
        "meta_mean_motion_dot": 6.889e-05,
        "meta_mean_motion_ddot": 0,
        "tle_line1": "1 30073U 99025QA  25338.90329706  .00006889  00000+0  32997-2 0  9997",
        "tle_line2": "2 30073  99.4103 311.5567 0054274 302.7222 112.1077 14.18584881968144"
      },
      "geometry": {
        "type": "Point",
        "coordinates": [
          18.83097659446905,
          -79.73088620128593
        ]
      }
    },
    {
      "type": "Feature",
      "properties": {
        "norad_id": 30074,
        "name": "FENGYUN 1C DEB",
        "group": "fengyun-1c-debris",
        "lat": 6.748425357637887,
        "lon": -132.94167203803084,
        "alt_km": 781.3279046434191,
        "timestamp": "2025-12-05T20:43:02.328928+00:00",
        "meta_object_name": "FENGYUN 1C DEB",
        "meta_object_id": "1999-025QB",
        "meta_epoch": "2025-12-03T03:18:42.300576",
        "meta_mean_motion": 14.12765686,
        "meta_eccentricity": 0.00975993,
        "meta_inclination": 99.1309,
        "meta_ra_of_asc_node": 43.1902,
        "meta_arg_of_pericenter": 178.438,
        "meta_mean_anomaly": 181.7114,
        "meta_ephemeris_type": 0,
        "meta_classification_type": "U",
        "meta_norad_cat_id": 30074,
        "meta_element_set_no": 999,
        "meta_rev_at_epoch": 96526,
        "meta_bstar": 0.002027268,
        "meta_mean_motion_dot": 3.894e-05,
        "meta_mean_motion_ddot": 0,
        "tle_line1": "1 30074U 99025QB  25337.13798959  .00003894  00000+0  20273-2 0  9999",
        "tle_line2": "2 30074  99.1309  43.1902 0097599 178.4380 181.7114 14.12765686965263"
      },
      "geometry": {
        "type": "Point",
        "coordinates": [
          -132.94167203803084,
          6.748425357637887
        ]
      }
    },
    {
      "type": "Feature",
      "properties": {
        "norad_id": 30075,
        "name": "FENGYUN 1C DEB",
        "group": "fengyun-1c-debris",
        "lat": 47.756514793762705,
        "lon": 19.63817358372982,
        "alt_km": 970.7796398194805,
        "timestamp": "2025-12-05T20:43:02.328938+00:00",
        "meta_object_name": "FENGYUN 1C DEB",
        "meta_object_id": "1999-025QC",
        "meta_epoch": "2025-12-05T03:32:22.318656",
        "meta_mean_motion": 13.9252893,
        "meta_eccentricity": 0.00907794,
        "meta_inclination": 99.3628,
        "meta_ra_of_asc_node": 29.3824,
        "meta_arg_of_pericenter": 197.5253,
        "meta_mean_anomaly": 225.5796,
        "meta_ephemeris_type": 0,
        "meta_classification_type": "U",
        "meta_norad_cat_id": 30075,
        "meta_element_set_no": 999,
        "meta_rev_at_epoch": 95959,
        "meta_bstar": 0.00031662922,
        "meta_mean_motion_dot": 3.76e-06,
        "meta_mean_motion_ddot": 0,
        "tle_line1": "1 30075U 99025QC  25339.14748054  .00000376  00000+0  31663-3 0  9992",
        "tle_line2": "2 30075  99.3628  29.3824 0090779 197.5253 225.5796 13.92528930959591"
      },
      "geometry": {
        "type": "Point",
        "coordinates": [
          19.63817358372982,
          47.756514793762705
        ]
      }
    },
    {
      "type": "Feature",
      "properties": {
        "norad_id": 30076,
        "name": "FENGYUN 1C DEB",
        "group": "fengyun-1c-debris",
        "lat": 31.472904172297877,
        "lon": 152.50905888348456,
        "alt_km": 869.9684666272697,
        "timestamp": "2025-12-05T20:43:02.328948+00:00",
        "meta_object_name": "FENGYUN 1C DEB",
        "meta_object_id": "1999-025QD",
        "meta_epoch": "2025-12-04T23:23:01.779360",
        "meta_mean_motion": 13.76283877,
        "meta_eccentricity": 0.0175595,
        "meta_inclination": 99.2374,
        "meta_ra_of_asc_node": 325.9293,
        "meta_arg_of_pericenter": 114.2843,
        "meta_mean_anomaly": 310.7183,
        "meta_ephemeris_type": 0,
        "meta_classification_type": "U",
        "meta_norad_cat_id": 30076,
        "meta_element_set_no": 999,
        "meta_rev_at_epoch": 94787,
        "meta_bstar": 0.00044048,
        "meta_mean_motion_dot": 4.4e-06,
        "meta_mean_motion_ddot": 0,
        "tle_line1": "1 30076U 99025QD  25338.97432615  .00000440  00000+0  44048-3 0  9999",
        "tle_line2": "2 30076  99.2374 325.9293 0175595 114.2843 310.7183 13.76283877947870"
      },
      "geometry": {
        "type": "Point",
        "coordinates": [
          152.50905888348456,
          31.472904172297877
        ]
      }
    },
    {
      "type": "Feature",
      "properties": {
        "norad_id": 30077,
        "name": "FENGYUN 1C DEB",
        "group": "fengyun-1c-debris",
        "lat": 29.40243865235708,
        "lon": -9.249277830733318,
        "alt_km": 871.74216228565,
        "timestamp": "2025-12-05T20:43:02.328958+00:00",
        "meta_object_name": "FENGYUN 1C DEB",
        "meta_object_id": "1999-025QE",
        "meta_epoch": "2025-12-05T06:58:47.889120",
        "meta_mean_motion": 14.07077171,
        "meta_eccentricity": 0.00204386,
        "meta_inclination": 98.7584,
        "meta_ra_of_asc_node": 355.1801,
        "meta_arg_of_pericenter": 286.2769,
        "meta_mean_anomaly": 85.564,
        "meta_ephemeris_type": 0,
        "meta_classification_type": "U",
        "meta_norad_cat_id": 30077,
        "meta_element_set_no": 999,
        "meta_rev_at_epoch": 97008,
        "meta_bstar": 1.4748487e-05,
        "meta_mean_motion_dot": -1.8e-07,
        "meta_mean_motion_ddot": 0,
        "tle_line1": "1 30077U 99025QE  25339.29083205 -.00000018  00000+0  14748-4 0  9990",
        "tle_line2": "2 30077  98.7584 355.1801 0020438 286.2769  85.5640 14.07077171970087"
      },
      "geometry": {
        "type": "Point",
        "coordinates": [
          -9.249277830733318,
          29.40243865235708
        ]
      }
    },
    {
      "type": "Feature",
      "properties": {
        "norad_id": 30078,
        "name": "FENGYUN 1C DEB",
        "group": "fengyun-1c-debris",
        "lat": -61.18412665144694,
        "lon": -141.71031439870976,
        "alt_km": 802.0104418945157,
        "timestamp": "2025-12-05T20:43:02.328967+00:00",
        "meta_object_name": "FENGYUN 1C DEB",
        "meta_object_id": "1999-025QF",
        "meta_epoch": "2025-12-05T04:31:03.930816",
        "meta_mean_motion": 14.2306921,
        "meta_eccentricity": 0.00525365,
        "meta_inclination": 98.8331,
        "meta_ra_of_asc_node": 54.0321,
        "meta_arg_of_pericenter": 302.5142,
        "meta_mean_anomaly": 84.3721,
        "meta_ephemeris_type": 0,
        "meta_classification_type": "U",
        "meta_norad_cat_id": 30078,
        "meta_element_set_no": 999,
        "meta_rev_at_epoch": 97006,
        "meta_bstar": 0.0027420187,
        "meta_mean_motion_dot": 6.231e-05,
        "meta_mean_motion_ddot": 0,
        "tle_line1": "1 30078U 99025QF  25339.18823994  .00006231  00000+0  27420-2 0  9997",
        "tle_line2": "2 30078  98.8331  54.0321 0052536 302.5142  84.3721 14.23069210970060"
      },
      "geometry": {
        "type": "Point",
        "coordinates": [
          -141.71031439870976,
          -61.18412665144694
        ]
      }
    },
    {
      "type": "Feature",
      "properties": {
        "norad_id": 30079,
        "name": "FENGYUN 1C DEB",
        "group": "fengyun-1c-debris",
        "lat": 9.418203137062921,
        "lon": -143.01146640630085,
        "alt_km": 944.7662851059476,
        "timestamp": "2025-12-05T20:43:02.328977+00:00",
        "meta_object_name": "FENGYUN 1C DEB",
        "meta_object_id": "1999-025QG",
        "meta_epoch": "2025-12-05T01:24:04.859712",
        "meta_mean_motion": 14.00787191,
        "meta_eccentricity": 0.00847086,
        "meta_inclination": 99.037,
        "meta_ra_of_asc_node": 34.6799,
        "meta_arg_of_pericenter": 320.6505,
        "meta_mean_anomaly": 113.8048,
        "meta_ephemeris_type": 0,
        "meta_classification_type": "U",
        "meta_norad_cat_id": 30079,
        "meta_element_set_no": 999,
        "meta_rev_at_epoch": 96430,
        "meta_bstar": 0.00036605962,
        "meta_mean_motion_dot": 5.19e-06,
        "meta_mean_motion_ddot": 0,
        "tle_line1": "1 30079U 99025QG  25339.05838958  .00000519  00000+0  36606-3 0  9990",
        "tle_line2": "2 30079  99.0370  34.6799 0084708 320.6505 113.8048 14.00787191964300"
      },
      "geometry": {
        "type": "Point",
        "coordinates": [
          -143.01146640630085,
          9.418203137062921
        ]
      }
    }
  ]
}